JINJUSat 1B
1 63210U 25052A   26202.45693139  .00015529  00000-0  46687-3 0  9994
2 63210  97.3957  99.2756 0002418  12.0183 348.1117 15.34482605 75355
NUSHSAT 1
1 63211U 25052B   26202.44258695  .00017278  00000-0  47597-3 0  9992
2 63211  97.3930  99.9511 0002443  26.3404 333.7964 15.37203593 75401
TEVEL2-4
1 63213U 25052D   26202.66245360  .00018876  00000-0  54489-3 0  9996
2 63213  97.3852  99.1315 0002941  39.0087 321.1368 15.35722053 75405
TEVEL2-5
1 63214U 25052E   26202.23085156  .00013792  00000-0  40164-3 0  9992
2 63214  97.3850  98.6364 0003007  41.9307 318.2166 15.35513919 75337
TEVEL2-6
1 63215U 25052F   26202.24396586  .00014542  00000-0  42379-3 0  9990
2 63215  97.3856  98.6345 0003085  43.9320 316.2168 15.35478834 75332
TEVEL2-1
1 63217U 25052H   26201.95933923  .00012768  00000-0  37939-3 0  9995
2 63217  97.3828  97.9321 0003746  47.7905 312.3656 15.34894951 75277
TEVEL2-3
1 63218U 25052J   26202.27861424  .00014156  00000-0  41933-3 0  9990
2 63218  97.3838  98.2781 0003518  50.2315 309.9238 15.34968740 75326
TEVEL2-2
1 63219U 25052K   26202.22019497  .00013942  00000-0  41374-3 0  9992
2 63219  97.3827  98.1963 0003810  47.4460 312.7104 15.34915096 75319
TEVEL2-9
1 63237U 25052AD  26202.24254238  .00012991  00000-0  41133-3 0  9994
2 63237  97.3890  97.5180 0007083  39.6084 320.5675 15.32853308 75241
TEVEL2-7
1 63238U 25052AE  26202.15968763  .00012126  00000-0  38803-3 0  9990
2 63238  97.3894  97.3362 0007217  40.1547 320.0227 15.32531062 75222
TEVEL2-8
1 63239U 25052AF  26202.49473660  .00014980  00000-0  47863-3 0  9991
2 63239  97.3893  97.6468 0007229  39.9501 320.2272 15.32528866 75276
SPIRONE
1 66657U 25274H   26201.75156400  .00001380  00000-0  13582-3 0  9993
2 66657  97.7470 130.5652 0010366 261.9765  98.0279 14.93665389 35232
K-HERO
1 66660U 25274L   26202.61754637  .00001662  00000-0  16080-3 0  9998
2 66660  97.7479 131.6051 0012216 263.6660  96.3169 14.94076547 35376
SNUGLITE-III DURI
1 66661U 25274M   26202.53758699  .00001174  00000-0  11506-3 0  9998
2 66661  97.7474 131.5471 0012898 265.0225  94.9522 14.94101487 35364
SAKHACUBE-CHOLBON
1 67290U 25313AU  26202.47328578  .00007583  00000-0  30253-3 0  9993
2 67290  97.3915 277.0903 0008171 225.4474 134.6097 15.25430441 31208
RS95S (QMR-KWT-2)
1 67291U 25313AV  26202.03394480  .00010048  00000-0  38071-3 0  9997
2 67291  97.3911 276.9085 0007938 223.0851 136.9767 15.27067305 31157
Ten-Koh2
1 68261U 25241B   26202.17846935  .00004250  00000-0  18557-3 0  9992
2 68261  51.6565 157.8159 0004648 251.0280 109.0195 15.24209984 20099
JACK-002
1 68417U 26067B   26202.60050406  .00005483  00000-0  25944-3 0  9997
2 68417  97.4584 160.7788 0003434 122.6950 237.4617 15.19764753 17175
DISCO 2
1 68431U 26067R   26202.62782076  .00007355  00000-0  34925-3 0  9999
2 68431  97.4617 160.7957 0001370 159.3869 200.7422 15.19532878 17177
HADES-SA (SpinnyONE)
1 68446U 26067AG  26202.33075419  .00013557  00000-0  62969-3 0  9999
2 68446  97.4419 160.1456 0005116 341.4904  18.6144 15.20113173 17113
PARUS-6U1
1 68456U 26067AS  26202.34100521  .00004419  00000-0  22167-3 0  9997
2 68456  97.4569 160.1909 0004109 323.2275  36.8676 15.17835626 17115
SAL-E
1 68458U 26067AU  26202.32959033  .00005424  00000-0  26852-3 0  9999
2 68458  97.4492 160.0976 0004530 336.2104  23.8920 15.18193604 17110
FSI-SAT 2
1 68792U 26088A   26202.34913127  .00003091  00000-0  20975-3 0  9997
2 68792  97.5114 350.7639 0013968 357.1555   2.9591 15.07070819 13437
OrigamiSat 2
1 68795U 26088D   26202.37622944  .00008611  00000-0  54129-3 0  9998
2 68795  97.5104 351.0377 0013739 323.9068  36.1233 15.09400949 13455
ARICA 2
1 68796U 26088E   26202.38791327  .00002430  00000-0  15887-3 0  9993
2 68796  97.5101 351.0072 0014499 325.8847  34.1448 15.08656485 13458
WASEDA-SAT-ZERO-II
1 68797U 26088F   26202.37757232  .00004447  00000-0  28485-3 0  9998
2 68797  97.5095 351.0183 0014305 324.8941  35.1344 15.08968652 13452
MANGARO-II-Piscus
1 68798U 26088G   26202.36628343  .00002637  00000-0  17027-3 0  9997
2 68798  97.5109 351.0448 0017983 327.9430  32.0703 15.08992748 13453
IO-86
1 40931U          25360.30710720  .00000000  00000-0  12800-3 0    00
2 40931   6.0006 332.5373 0012733 338.8432   8.1437 14.79075515    01
LILIUM-4
1 71922C 26067AC  26089.50133053 -.00014632  00000 0 -74472-3 0    04
2 71922  97.4497  49.1617 0004341   5.9603 355.7042 15.16896692    16
